{
  "norad_id": 65123,
  "name": "GEESAT-4 05",
  "history": [
    {
      "epoch": "2026-03-27T15:42:58.855104Z",
      "apogee_km": 627.1058210064011,
      "perigee_km": 602.1553465567649,
      "latitude_deg": -3.810447092978006e-05,
      "longitude_deg": 84.65590095692794,
      "height_km": 602.7161582474358,
      "semi_major_axis_km": 6992.767583781582,
      "eccentricity": 0.00178402,
      "inclination_deg": 49.998,
      "raan_deg": 145.4877,
      "arg_perigee_deg": 357.1825,
      "mean_anomaly_deg": 2.901,
      "mean_motion_rev_day": 14.84667224
    }
  ]
}